{
  "type": "FeatureCollection",
  "features": [
    {
      "type": "Feature",
      "properties": {
        "norad_id": 36682,
        "name": "FENGYUN 1C DEB",
        "group": "fengyun-1c-debris",
        "lat": -10.795423509341614,
        "lon": -115.42046573524084,
        "alt_km": 887.3346917591125,
        "timestamp": "2025-12-04T03:47:54.831580+00:00",
        "meta_object_name": "FENGYUN 1C DEB",
        "meta_object_id": "1999-025DZC",
        "meta_epoch": "2025-11-25T04:16:29.525664",
        "meta_mean_motion": 13.70056399,
        "meta_eccentricity": 0.02353921,
        "meta_inclination": 98.4824,
        "meta_ra_of_asc_node": 235.0215,
        "meta_arg_of_pericenter": 324.0882,
        "meta_mean_anomaly": 34.464,
        "meta_ephemeris_type": 0,
        "meta_classification_type": "U",
        "meta_norad_cat_id": 36682,
        "meta_element_set_no": 999,
        "meta_rev_at_epoch": 61152,
        "meta_bstar": 0.0021541592,
        "meta_mean_motion_dot": 2.264e-05,
        "meta_mean_motion_ddot": 0,
        "tle_line1": "1 36682U 99025DZC 25329.17811951  .00002264  00000+0  21542-2 0  9993",
        "tle_line2": "2 36682  98.4824 235.0215 0235392 324.0882  34.4640 13.70056399611520"
      },
      "geometry": {
        "type": "Point",
        "coordinates": [
          -115.42046573524084,
          -10.795423509341614
        ]
      }
    },
    {
      "type": "Feature",
      "properties": {
        "norad_id": 36684,
        "name": "FENGYUN 1C DEB",
        "group": "fengyun-1c-debris",
        "lat": -51.84795393584798,
        "lon": 80.79986400079737,
        "alt_km": 605.7364247160458,
        "timestamp": "2025-12-04T03:47:54.831590+00:00",
        "meta_object_name": "FENGYUN 1C DEB",
        "meta_object_id": "1999-025DZE",
        "meta_epoch": "2025-11-29T05:08:15.355104",
        "meta_mean_motion": 14.94343173,
        "meta_eccentricity": 0.00233669,
        "meta_inclination": 99.4629,
        "meta_ra_of_asc_node": 62.5894,
        "meta_arg_of_pericenter": 152.1689,
        "meta_mean_anomaly": 208.0782,
        "meta_ephemeris_type": 0,
        "meta_classification_type": "U",
        "meta_norad_cat_id": 36684,
        "meta_element_set_no": 999,
        "meta_rev_at_epoch": 65699,
        "meta_bstar": 0.0047778381,
        "meta_mean_motion_dot": 0.00051944,
        "meta_mean_motion_ddot": 0,
        "tle_line1": "1 36684U 99025DZE 25333.21406661  .00051944  00000+0  47778-2 0  9991",
        "tle_line2": "2 36684  99.4629  62.5894 0023366 152.1689 208.0782 14.94343173656995"
      },
      "geometry": {
        "type": "Point",
        "coordinates": [
          80.79986400079737,
          -51.84795393584798
        ]
      }
    },
    {
      "type": "Feature",
      "properties": {
        "norad_id": 36686,
        "name": "FENGYUN 1C DEB",
        "group": "fengyun-1c-debris",
        "lat": 40.86421186706658,
        "lon": 160.69018754668474,
        "alt_km": 577.3574658351499,
        "timestamp": "2025-12-04T03:47:54.831601+00:00",
        "meta_object_name": "FENGYUN 1C DEB",
        "meta_object_id": "1999-025DZG",
        "meta_epoch": "2025-12-03T06:28:38.451072",
        "meta_mean_motion": 14.77013397,
        "meta_eccentricity": 0.0105396,
        "meta_inclination": 99.0011,
        "meta_ra_of_asc_node": 167.5819,
        "meta_arg_of_pericenter": 82.9406,
        "meta_mean_anomaly": 278.3773,
        "meta_ephemeris_type": 0,
        "meta_classification_type": "U",
        "meta_norad_cat_id": 36686,
        "meta_element_set_no": 999,
        "meta_rev_at_epoch": 65712,
        "meta_bstar": 0.0010973,
        "meta_mean_motion_dot": 8.421e-05,
        "meta_mean_motion_ddot": 0,
        "tle_line1": "1 36686U 99025DZG 25337.26988948  .00008421  00000+0  10973-2 0  9994",
        "tle_line2": "2 36686  99.0011 167.5819 0105396  82.9406 278.3773 14.77013397657121"
      },
      "geometry": {
        "type": "Point",
        "coordinates": [
          160.69018754668474,
          40.86421186706658
        ]
      }
    },
    {
      "type": "Feature",
      "properties": {
        "norad_id": 36687,
        "name": "FENGYUN 1C DEB",
        "group": "fengyun-1c-debris",
        "lat": -76.08254528570035,
        "lon": 103.18307203629821,
        "alt_km": 820.685349008344,
        "timestamp": "2025-12-04T03:47:54.831611+00:00",
        "meta_object_name": "FENGYUN 1C DEB",
        "meta_object_id": "1999-025DZH",
        "meta_epoch": "2025-12-03T00:48:50.166144",
        "meta_mean_motion": 14.04517636,
        "meta_eccentricity": 0.00903358,
        "meta_inclination": 98.7164,
        "meta_ra_of_asc_node": 63.8535,
        "meta_arg_of_pericenter": 292.8526,
        "meta_mean_anomaly": 66.3122,
        "meta_ephemeris_type": 0,
        "meta_classification_type": "U",
        "meta_norad_cat_id": 36687,
        "meta_element_set_no": 999,
        "meta_rev_at_epoch": 62586,
        "meta_bstar": 0.00040937059,
        "meta_mean_motion_dot": 6.35e-06,
        "meta_mean_motion_ddot": 0,
        "tle_line1": "1 36687U 99025DZH 25337.03391396  .00000635  00000+0  40937-3 0  9998",
        "tle_line2": "2 36687  98.7164  63.8535 0090335 292.8526  66.3122 14.04517636625865"
      },
      "geometry": {
        "type": "Point",
        "coordinates": [
          103.18307203629821,
          -76.08254528570035
        ]
      }
    },
    {
      "type": "Feature",
      "properties": {
        "norad_id": 36689,
        "name": "FENGYUN 1C DEB",
        "group": "fengyun-1c-debris",
        "lat": -66.89416715594174,
        "lon": -106.58696422500408,
        "alt_km": 785.9475124085093,
        "timestamp": "2025-12-04T03:47:54.831621+00:00",
        "meta_object_name": "FENGYUN 1C DEB",
        "meta_object_id": "1999-025DZK",
        "meta_epoch": "2025-11-28T10:04:14.213280",
        "meta_mean_motion": 13.74189275,
        "meta_eccentricity": 0.03131537,
        "meta_inclination": 98.4796,
        "meta_ra_of_asc_node": 227.8431,
        "meta_arg_of_pericenter": 334.7216,
        "meta_mean_anomaly": 23.8887,
        "meta_ephemeris_type": 0,
        "meta_classification_type": "U",
        "meta_norad_cat_id": 36689,
        "meta_element_set_no": 999,
        "meta_rev_at_epoch": 58016,
        "meta_bstar": 0.0027905602,
        "meta_mean_motion_dot": 3.71e-05,
        "meta_mean_motion_ddot": 0,
        "tle_line1": "1 36689U 99025DZK 25332.41960895  .00003710  00000+0  27906-2 0  9990",
        "tle_line2": "2 36689  98.4796 227.8431 0313153 334.7216  23.8887 13.74189275580169"
      },
      "geometry": {
        "type": "Point",
        "coordinates": [
          -106.58696422500408,
          -66.89416715594174
        ]
      }
    },
    {
      "type": "Feature",
      "properties": {
        "norad_id": 36691,
        "name": "FENGYUN 1C DEB",
        "group": "fengyun-1c-debris",
        "lat": -5.772544615330004,
        "lon": 157.78044324832524,
        "alt_km": 846.3173803870777,
        "timestamp": "2025-12-04T03:47:54.831631+00:00",
        "meta_object_name": "FENGYUN 1C DEB",
        "meta_object_id": "1999-025DZM",
        "meta_epoch": "2025-12-03T18:22:18.221952",
        "meta_mean_motion": 14.07043447,
        "meta_eccentricity": 0.0129199,
        "meta_inclination": 98.6369,
        "meta_ra_of_asc_node": 338.2855,
        "meta_arg_of_pericenter": 260.9159,
        "meta_mean_anomaly": 97.7372,
        "meta_ephemeris_type": 0,
        "meta_classification_type": "U",
        "meta_norad_cat_id": 36691,
        "meta_element_set_no": 999,
        "meta_rev_at_epoch": 59483,
        "meta_bstar": 0.003088,
        "meta_mean_motion_dot": 5.527e-05,
        "meta_mean_motion_ddot": 0,
        "tle_line1": "1 36691U 99025DZM 25337.76548868  .00005527  00000+0  30880-2 0  9991",
        "tle_line2": "2 36691  98.6369 338.2855 0129199 260.9159  97.7372 14.07043447594833"
      },
      "geometry": {
        "type": "Point",
        "coordinates": [
          157.78044324832524,
          -5.772544615330004
        ]
      }
    },
    {
      "type": "Feature",
      "properties": {
        "norad_id": 36692,
        "name": "FENGYUN 1C DEB",
        "group": "fengyun-1c-debris",
        "lat": -66.64895525379264,
        "lon": 39.43745817847849,
        "alt_km": 994.1427156382242,
        "timestamp": "2025-12-04T03:47:54.831641+00:00",
        "meta_object_name": "FENGYUN 1C DEB",
        "meta_object_id": "1999-025DZN",
        "meta_epoch": "2025-12-02T12:41:50.115264",
        "meta_mean_motion": 13.93442658,
        "meta_eccentricity": 0.01157157,
        "meta_inclination": 99.9951,
        "meta_ra_of_asc_node": 241.7875,
        "meta_arg_of_pericenter": 39.9127,
        "meta_mean_anomaly": 321.0467,
        "meta_ephemeris_type": 0,
        "meta_classification_type": "U",
        "meta_norad_cat_id": 36692,
        "meta_element_set_no": 999,
        "meta_rev_at_epoch": 59663,
        "meta_bstar": 0.0007628804,
        "meta_mean_motion_dot": 1.005e-05,
        "meta_mean_motion_ddot": 0,
        "tle_line1": "1 36692U 99025DZN 25336.52905226  .00001005  00000+0  76288-3 0  9990",
        "tle_line2": "2 36692  99.9951 241.7875 0115715  39.9127 321.0467 13.93442658596632"
      },
      "geometry": {
        "type": "Point",
        "coordinates": [
          39.43745817847849,
          -66.64895525379264
        ]
      }
    }
  ]
}